[{"OBJECT_NAME":"GRUS-1A","OBJECT_ID":"2018-111Q","EPOCH":"2026-03-09T23:18:05.956128","MEAN_MOTION":14.98893897,"ECCENTRICITY":0.00097781,"INCLINATION":97.4655,"RA_OF_ASC_NODE":300.3513,"ARG_OF_PERICENTER":128.8058,"MEAN_ANOMALY":231.404,"EPHEMERIS_TYPE":0,"CLASSIFICATION_TYPE":"U","NORAD_CAT_ID":43890,"ELEMENT_SET_NO":999,"REV_AT_EPOCH":39284,"BSTAR":0.00022419467,"MEAN_MOTION_DOT":2.655e-5,"MEAN_MOTION_DDOT":0},{"OBJECT_NAME":"STARLINK-5970","OBJECT_ID":"2023-064C","EPOCH":"2026-03-09T22:45:18.813024","MEAN_MOTION":14.98321325,"ECCENTRICITY":0.0003014,"INCLINATION":70.0004,"RA_OF_ASC_NODE":143.8539,"ARG_OF_PERICENTER":269.2626,"MEAN_ANOMALY":90.8188,"EPHEMERIS_TYPE":0,"CLASSIFICATION_TYPE":"U","NORAD_CAT_ID":56450,"ELEMENT_SET_NO":999,"REV_AT_EPOCH":15528,"BSTAR":9.4486636e-5,"MEAN_MOTION_DOT":1.034e-5,"MEAN_MOTION_DDOT":0}]
